STARLINK-37374          
1 69153U 26111F   26168.22554299  .00036766  00000+0  66980-3 0  9995
2 69153  53.1608 153.1393 0002169  68.6189 291.5051 15.49145398  4242
STARLINK-37235          
1 69154U 26111G   26167.66622657  .00065702  00000+0  11787-2 0  9993
2 69154  53.1589 156.0546 0000797 111.0646 249.0449 15.49327188  4157
STARLINK-37329          
1 69155U 26111H   26168.16668980 -.02527820  00000+0 -36711-1 0  9990
2 69155  53.1599 152.0430 0001003  92.0723 259.1286 15.59021904  5545
STARLINK-37345          
1 69156U 26111J   26168.16668980 -.02547500  00000+0 -34727-1 0  9993
2 69156  53.1606 151.9804 0000838  98.0417 283.8785 15.60693851  5545
STARLINK-37353          
1 69157U 26111K   26168.16668980 -.02536958  00000+0 -34122-1 0  9998
2 69157  53.1605 151.9715 0000847  92.8823 293.4450 15.61021494  5544
STARLINK-37363          
1 69158U 26111L   26168.16668980 -.02505795  00000+0 -33889-1 0  9993
2 69158  53.1607 151.9769 0000981  96.5384 287.1826 15.60829628  5549
STARLINK-37343          
1 69159U 26111M   26168.22540354  .00107297  00000+0  18896-2 0  9998
2 69159  53.1612 153.1349 0001659 153.5649 206.5445 15.49627861  4245
STARLINK-37328          
1 69160U 26111N   26168.16668980 -.02491133  00000+0 -32737-1 0  9997
2 69160  53.1607 151.9341 0000868  96.9973 307.5494 15.61542657  5543
STARLINK-37311          
1 69161U 26111P   26168.16668980 -.02536753  00000+0 -29639-1 0  9993
2 69161  53.1598 152.0133 0000884  99.9798 265.8430 15.64576572  5542
STARLINK-36286          
1 69162U 26111Q   26168.16668980 -.03446989  00000+0 -64513-1 0  9996
2 69162  53.1600 152.3309 0002087  88.2030 121.2401 15.52159720  5544
STARLINK-37196          
1 69163U 26111R   26168.16668980 -.02593633  00000+0 -28842-1 0  9990
2 69163  53.1598 152.0201 0000848  95.4024 267.1595 15.65886114  5547
STARLINK-36288          
1 69164U 26111S   26168.16668980 -.02415018  00000+0 -42943-1 0  9999
2 69164  53.1601 152.3091 0001545  83.7340 136.3953 15.53436457  5542
STARLINK-37445          
1 69165U 26111T   26168.16668980 -.01930044  00000+0 -36851-1 0  9991
2 69165  53.1601 152.4028 0001006  42.4170 131.3641 15.50673023  5547
STARLINK-37491          
1 69166U 26111U   26168.16668980 -.02546372  00000+0 -36743-1 0  9990
2 69166  53.1592 152.1268 0001222 110.1633 200.0921 15.59217424  5540
STARLINK-37474          
1 69167U 26111V   26168.16668980 -.02441167  00000+0 -29556-1 0  9991
2 69167  53.1599 152.0027 0001106  98.4595 272.3742 15.63538714  5542
STARLINK-37469          
1 69168U 26111W   26168.11340186  .00049529  00000+0  89219-3 0  9998
2 69168  53.1592 153.8628 0000957 100.3726 259.7391 15.49333153  4221
STARLINK-37515          
1 69169U 26111X   26168.16668980 -.02553547  00000+0 -41406-1 0  9997
2 69169  53.1595 152.1793 0001242 100.5649 183.1417 15.55529545  5548
STARLINK-37437          
1 69170U 26111Y   26168.16668980 -.02515660  00000+0 -36190-1 0  9997
2 69170  53.1605 152.0295 0000979  99.9008 257.2492 15.59248963  5546
STARLINK-37392          
1 69171U 26111Z   26168.16668980 -.02341441  00000+0 -34812-1 0  9991
2 69171  53.1600 152.1173 0001442  95.0235 218.6059 15.58103178  5540
STARLINK-37472          
1 69172U 26111AA  26168.16668980  .00008570  00000+0  16183-3 0  9994
2 69172  53.1602 152.6154 0000754 131.0717 295.7744 15.49336030  5540
STARLINK-37461          
1 69173U 26111AB  26168.10528631  .00045881  00000+0  82687-3 0  9995
2 69173  53.1589 153.8088 0001276  83.9464 276.1690 15.49353094  4224
STARLINK-37333          
1 69174U 26111AC  26168.16668980 -.02489428  00000+0 -43726-1 0  9996
2 69174  53.1604 152.3307 0001493  94.2853 114.4706 15.53274719  5548
STARLINK-37385          
1 69175U 26111AD  26167.19449965  .00071013  00000+0  12715-2 0  9997
2 69175  53.1597 158.0776 0001212 108.2348 251.8793 15.49349443  4089
STARLINK-37414          
1 69176U 26111AE  26168.16668980 -.02567855  00000+0 -43310-1 0  9998
2 69176  53.1595 152.1437 0001327 103.8128 196.5365 15.54487524  5542
STRIX-7                 
1 69177U 26112A   26168.17236955  .00001717  00000+0  14807-3 0  9991
2 69177  44.9070 192.5271 0023227  47.0764 313.2052 15.01435364  3873
SHENZHOU-23 (SZ-23)     
1 69180U 26113A   26167.46514383  .00018830  00000+0  22290-3 0  9990
2 69180  41.4697 326.3961 0007507  71.1015 289.0637 15.60781847293119
STARLINK-37380          
1 69182U 26114A   26168.15619451  .00148086  00000+0  84116-3 0  9994
2 69182  53.1572 202.6645 0001291  61.1292 298.9859 15.78077282  4764
STARLINK-37089          
1 69183U 26114B   26167.58526287  .00140615  00000+0  79837-3 0  9999
2 69183  53.1574 205.5039 0001003 116.6482 243.4642 15.78112263  4678
STARLINK-37428          
1 69184U 26114C   26168.15385566  .00131453  00000+0  74853-3 0  9990
2 69184  53.1575 202.6493 0001978  31.1765 328.9373 15.78077731  4768
