OBJECT_NAME,OBJECT_ID,EPOCH,MEAN_MOTION,ECCENTRICITY,INCLINATION,RA_OF_ASC_NODE,ARG_OF_PERICENTER,MEAN_ANOMALY,EPHEMERIS_TYPE,CLASSIFICATION_TYPE,NORAD_CAT_ID,ELEMENT_SET_NO,REV_AT_EPOCH,BSTAR,MEAN_MOTION_DOT,MEAN_MOTION_DDOT
STARLINK-37374,2026-111F,2026-06-17T05:24:46.914336,15.49145398,.0002169,53.1608,153.1393,68.6189,291.5051,0,U,69153,999,424,.6698E-3,.36766E-3,0
STARLINK-37235,2026-111G,2026-06-16T15:59:21.975648,15.49327188,.0000797,53.1589,156.0546,111.0646,249.0449,0,U,69154,999,415,.11787E-2,.65702E-3,0
STARLINK-37329,2026-111H,2026-06-17T04:00:01.998720,15.59021904,.0001003,53.1599,152.0430,92.0723,259.1286,0,U,69155,999,554,-.36711E-1,-.252782E-1,0
STARLINK-37345,2026-111J,2026-06-17T04:00:01.998720,15.60693851,.0000838,53.1606,151.9804,98.0417,283.8785,0,U,69156,999,554,-.34727E-1,-.25475E-1,0
STARLINK-37353,2026-111K,2026-06-17T04:00:01.998720,15.61021494,.0000847,53.1605,151.9715,92.8823,293.4450,0,U,69157,999,554,-.34122E-1,-.2536958E-1,0
STARLINK-37363,2026-111L,2026-06-17T04:00:01.998720,15.60829628,.0000981,53.1607,151.9769,96.5384,287.1826,0,U,69158,999,554,-.33889E-1,-.2505795E-1,0
STARLINK-37343,2026-111M,2026-06-17T05:24:34.865856,15.49627861,.0001659,53.1612,153.1349,153.5649,206.5445,0,U,69159,999,424,.18896E-2,.107297E-2,0
STARLINK-37328,2026-111N,2026-06-17T04:00:01.998720,15.61542657,.0000868,53.1607,151.9341,96.9973,307.5494,0,U,69160,999,554,-.32737E-1,-.2491133E-1,0
STARLINK-37311,2026-111P,2026-06-17T04:00:01.998720,15.64576572,.0000884,53.1598,152.0133,99.9798,265.8430,0,U,69161,999,554,-.29639E-1,-.2536753E-1,0
STARLINK-36286,2026-111Q,2026-06-17T04:00:01.998720,15.52159720,.0002087,53.1600,152.3309,88.2030,121.2401,0,U,69162,999,554,-.64513E-1,-.3446989E-1,0
STARLINK-37196,2026-111R,2026-06-17T04:00:01.998720,15.65886114,.0000848,53.1598,152.0201,95.4024,267.1595,0,U,69163,999,554,-.28842E-1,-.2593633E-1,0
STARLINK-36288,2026-111S,2026-06-17T04:00:01.998720,15.53436457,.0001545,53.1601,152.3091,83.7340,136.3953,0,U,69164,999,554,-.42943E-1,-.2415018E-1,0
STARLINK-37445,2026-111T,2026-06-17T04:00:01.998720,15.50673023,.0001006,53.1601,152.4028,42.4170,131.3641,0,U,69165,999,554,-.36851E-1,-.1930044E-1,0
STARLINK-37491,2026-111U,2026-06-17T04:00:01.998720,15.59217424,.0001222,53.1592,152.1268,110.1633,200.0921,0,U,69166,999,554,-.36743E-1,-.2546372E-1,0
STARLINK-37474,2026-111V,2026-06-17T04:00:01.998720,15.63538714,.0001106,53.1599,152.0027,98.4595,272.3742,0,U,69167,999,554,-.29556E-1,-.2441167E-1,0
STARLINK-37469,2026-111W,2026-06-17T02:43:17.920704,15.49333153,.0000957,53.1592,153.8628,100.3726,259.7391,0,U,69168,999,422,.89219E-3,.49529E-3,0
STARLINK-37515,2026-111X,2026-06-17T04:00:01.998720,15.55529545,.0001242,53.1595,152.1793,100.5649,183.1417,0,U,69169,999,554,-.41406E-1,-.2553547E-1,0
STARLINK-37437,2026-111Y,2026-06-17T04:00:01.998720,15.59248963,.0000979,53.1605,152.0295,99.9008,257.2492,0,U,69170,999,554,-.3619E-1,-.251566E-1,0
STARLINK-37392,2026-111Z,2026-06-17T04:00:01.998720,15.58103178,.0001442,53.1600,152.1173,95.0235,218.6059,0,U,69171,999,554,-.34812E-1,-.2341441E-1,0
STARLINK-37472,2026-111AA,2026-06-17T04:00:01.998720,15.49336030,.0000754,53.1602,152.6154,131.0717,295.7744,0,U,69172,999,554,.16183E-3,.857E-4,0
STARLINK-37461,2026-111AB,2026-06-17T02:31:36.737184,15.49353094,.0001276,53.1589,153.8088,83.9464,276.1690,0,U,69173,999,422,.82687E-3,.45881E-3,0
STARLINK-37333,2026-111AC,2026-06-17T04:00:01.998720,15.53274719,.0001493,53.1604,152.3307,94.2853,114.4706,0,U,69174,999,554,-.43726E-1,-.2489428E-1,0
STARLINK-37385,2026-111AD,2026-06-16T04:40:04.769760,15.49349443,.00012129,53.1597,158.0776,108.2348,251.8793,0,U,69175,999,408,.12714854E-2,.71013E-3,0
STARLINK-37414,2026-111AE,2026-06-17T04:00:01.998720,15.54487524,.0001327,53.1595,152.1437,103.8128,196.5365,0,U,69176,999,554,-.4331E-1,-.2567855E-1,0
STRIX-7,2026-112A,2026-06-17T04:08:12.729120,15.01435364,.0023227,44.9070,192.5271,47.0764,313.2052,0,U,69177,999,387,.14807E-3,.1717E-4,0
SHENZHOU-23 (SZ-23),2026-113A,2026-06-16T11:09:48.426912,15.60781847,.0007507,41.4697,326.3961,71.1015,289.0637,0,U,69180,999,29311,.22289539E-3,.1883E-3,0
STARLINK-37380,2026-114A,2026-06-17T03:44:55.205664,15.78077282,.0001291,53.1572,202.6645,61.1292,298.9859,0,U,69182,999,476,.84116E-3,.148086E-2,0
STARLINK-37089,2026-114B,2026-06-16T14:02:46.711968,15.78112263,.0001003,53.1574,205.5039,116.6482,243.4642,0,U,69183,999,467,.79837E-3,.140615E-2,0
STARLINK-37428,2026-114C,2026-06-17T03:41:33.129024,15.78077731,.0001978,53.1575,202.6493,31.1765,328.9373,0,U,69184,999,476,.74853E-3,.131453E-2,0
